{
    "satellites": [
        {
            "name": "starlink305",
            "title": "Starlink-305 (G11-20) (new)",
            "tle": [
                "1 70372C 25221G   25276.89423611 -.01879100  00000+0 -41300-2 0  2762",
                "2 70372  53.1572 104.4795 0000514  95.6385  77.8502 15.99294979    14"
            ],
            "stdMag": 5,
            "noradId": "70372",
            "tleUrl": "http://celestrak.org/NORAD/elements/supplemental/sup-gp.php?FILE=starlink&FORMAT=tle",
            "launchDate": "2025-09-29T02:04:50.000Z",
            "active": true,
            "batch": [
                {
                    "noradId": "70372",
                    "tle": [
                        "1 70372C 25221G   25276.89423611 -.01879100  00000+0 -41300-2 0  2762",
                        "2 70372  53.1572 104.4795 0000514  95.6385  77.8502 15.99294979    14"
                    ]
                },
                {
                    "noradId": "70393",
                    "tle": [
                        "1 70393C 25221AD  25276.89701389 -.01137900  00000+0 -18463-2 0  2765",
                        "2 70393  53.1565 104.4162 0000775 136.2057  76.4468 16.03816386    18"
                    ]
                },
                {
                    "noradId": "70390",
                    "tle": [
                        "1 70390C 25221AA  25276.89631944 -.01140500  00000+0 -18606-2 0  2760",
                        "2 70390  53.1563 104.4215 0000630 149.2845  58.3364 16.03727055    19"
                    ]
                },
                {
                    "noradId": "70389",
                    "tle": [
                        "1 70389C 25221Z   25276.89215278 -.01150000  00000+0 -19020-2 0  2763",
                        "2 70389  53.1563 104.4486 0000468 128.6346  52.4955 16.03506005    14"
                    ]
                },
                {
                    "noradId": "70391",
                    "tle": [
                        "1 70391C 25221AB  25276.89770833 -.01136700  00000+0 -18961-2 0  2763",
                        "2 70391  53.1564 104.4219 0000586 137.0624  74.8359 16.03346635    13"
                    ]
                },
                {
                    "noradId": "70392",
                    "tle": [
                        "1 70392C 25221AC  25276.89145833 -.01143700  00000+0 -18812-2 0  2763",
                        "2 70392  53.1564 104.4498 0000741 135.6578  42.4845 16.03591144    16"
                    ]
                },
                {
                    "noradId": "70388",
                    "tle": [
                        "1 70388C 25221Y   25276.89423611 -.01146000  00000+0 -19221-2 0  2762",
                        "2 70388  53.1566 104.4420 0000562 134.8142  55.9035 16.03264182    16"
                    ]
                },
                {
                    "noradId": "70386",
                    "tle": [
                        "1 70386C 25221W   25276.89562500 -.01141000  00000+0 -19287-2 0  2768",
                        "2 70386  53.1563 104.4380 0000620 128.8930  68.5550 16.03125559    15"
                    ]
                },
                {
                    "noradId": "70387",
                    "tle": [
                        "1 70387C 25221X   25276.89631944 -.01142700  00000+0 -19430-2 0  2766",
                        "2 70387  53.1562 104.4365 0000528 139.5524  60.7574 16.03028044    14"
                    ]
                },
                {
                    "noradId": "70385",
                    "tle": [
                        "1 70385C 25221V   25276.89076389 -.01148600  00000+0 -19788-2 0  2761",
                        "2 70385  53.1565 104.4706 0000496 128.0393  37.7805 16.02811440    15"
                    ]
                },
                {
                    "noradId": "70384",
                    "tle": [
                        "1 70384C 25221U   25276.89354167 -.01143400  00000+0 -19568-2 0  2762",
                        "2 70384  53.1564 104.4536 0000352 131.9975  51.0760 16.02919021    17"
                    ]
                }
            ]
        },
        {
            "name": "starlink304",
            "title": "Starlink-304 (G17-11)",
            "tle": [
                "1 70314C 25218A   25276.89493056 -.01880900  00000+0 -62071-2 0  2762",
                "2 70314  97.6004 136.2814 0001978 124.4713 146.8863 15.92370574    15"
            ],
            "stdMag": 5,
            "noradId": "70314",
            "tleUrl": "http://celestrak.org/NORAD/elements/supplemental/sup-gp.php?FILE=starlink&FORMAT=tle",
            "launchDate": "2025-09-26T04:26:29.000Z",
            "active": true
        },
        {
            "name": "starlink303",
            "title": "Starlink-303 (G10-15)",
            "tle": [
                "1 70310C 25216AA  25276.89006944 -.01393800  00000+0 -48423-2 0  2765",
                "2 70310  53.1548 347.5226 0000835  71.8489 110.6817 15.90090897    14"
            ],
            "stdMag": 5,
            "noradId": "70310",
            "tleUrl": "http://celestrak.org/NORAD/elements/supplemental/sup-gp.php?FILE=starlink&FORMAT=tle",
            "launchDate": "2025-09-25T08:39:00.000Z",
            "active": true
        }
    ],
    "config": {}
}